{
  "norad_id": 66276,
  "name": "STARLINK-35742",
  "history": [
    {
      "epoch": "2026-03-28T18:16:25.349664Z",
      "apogee_km": 476.0226762885295,
      "perigee_km": 474.3926767906605,
      "latitude_deg": 5.712137870816565e-05,
      "longitude_deg": 2.57090855407089,
      "height_km": 476.02398050543275,
      "semi_major_axis_km": 6853.344676539595,
      "eccentricity": 0.00011892,
      "inclination_deg": 53.1607,
      "raan_deg": 102.8537,
      "arg_perigee_deg": 84.2284,
      "mean_anomaly_deg": 275.8853,
      "mean_motion_rev_day": 15.30202476
    },
    {
      "epoch": "2026-03-29T05:14:47.490144Z",
      "apogee_km": 475.5436677487205,
      "perigee_km": 474.84462797163815,
      "latitude_deg": 4.546418062039053e-05,
      "longitude_deg": -164.59688968760165,
      "height_km": 476.23207910661864,
      "semi_major_axis_km": 6853.331147860179,
      "eccentricity": 5.1e-05,
      "inclination_deg": 53.162,
      "raan_deg": 100.7288,
      "arg_perigee_deg": 113.3609,
      "mean_anomaly_deg": 246.7446,
      "mean_motion_rev_day": 15.30207007
    },
    {
      "epoch": "2026-03-30T04:45:35.679168Z",
      "apogee_km": 476.00126036218353,
      "perigee_km": 474.4382838167403,
      "latitude_deg": -1.9122335616082253e-06,
      "longitude_deg": -162.81297239945073,
      "height_km": 475.97103495430497,
      "semi_major_axis_km": 6853.356772089462,
      "eccentricity": 0.00011403,
      "inclination_deg": 53.1607,
      "raan_deg": 96.1792,
      "arg_perigee_deg": 79.1509,
      "mean_anomaly_deg": 280.962,
      "mean_motion_rev_day": 15.30198425
    },
    {
      "epoch": "2026-03-30T06:19:38.968608Z",
      "apogee_km": 476.09935189998396,
      "perigee_km": 474.40519407170177,
      "latitude_deg": 3.447992751747923e-05,
      "longitude_deg": 173.30717054930054,
      "height_km": 476.06239280868044,
      "semi_major_axis_km": 6853.389272985843,
      "eccentricity": 0.0001236,
      "inclination_deg": 53.161,
      "raan_deg": 95.8774,
      "arg_perigee_deg": 84.0295,
      "mean_anomaly_deg": 276.0847,
      "mean_motion_rev_day": 15.3018754
    },
    {
      "epoch": "2026-03-30T17:18:00.265824Z",
      "apogee_km": 475.6400331901923,
      "perigee_km": 474.4858172587856,
      "latitude_deg": -2.4626500369761485e-05,
      "longitude_deg": 6.140760688671004,
      "height_km": 476.07760317134495,
      "semi_major_axis_km": 6853.199925224489,
      "eccentricity": 8.421e-05,
      "inclination_deg": 53.1603,
      "raan_deg": 93.7504,
      "arg_perigee_deg": 101.5908,
      "mean_anomaly_deg": 258.5187,
      "mean_motion_rev_day": 15.30250957
    },
    {
      "epoch": "2026-03-31T16:48:48.612960Z",
      "apogee_km": 475.9656552354327,
      "perigee_km": 474.57578414987984,
      "latitude_deg": 1.0657874176195275e-05,
      "longitude_deg": 7.924979636126899,
      "height_km": 476.1527307314674,
      "semi_major_axis_km": 6853.407719692656,
      "eccentricity": 0.0001014,
      "inclination_deg": 53.1597,
      "raan_deg": 89.2017,
      "arg_perigee_deg": 88.6502,
      "mean_anomaly_deg": 271.4615,
      "mean_motion_rev_day": 15.30181362
    },
    {
      "epoch": "2026-04-01T16:19:37.188192Z",
      "apogee_km": 475.992408776282,
      "perigee_km": 474.3818776026319,
      "latitude_deg": 3.731832644710421e-05,
      "longitude_deg": 9.704739110654723,
      "height_km": 475.9979431872465,
      "semi_major_axis_km": 6853.324143189457,
      "eccentricity": 0.0001175,
      "inclination_deg": 53.1587,
      "raan_deg": 84.6495,
      "arg_perigee_deg": 83.7781,
      "mean_anomaly_deg": 276.3354,
      "mean_motion_rev_day": 15.30209353
    },
    {
      "epoch": "2026-04-02T15:50:24.908064Z",
      "apogee_km": 476.15338524453637,
      "perigee_km": 474.1915568753502,
      "latitude_deg": 3.8136646156121565e-05,
      "longitude_deg": 11.490252684755182,
      "height_km": 476.02429458336394,
      "semi_major_axis_km": 6853.309471059943,
      "eccentricity": 0.00014313,
      "inclination_deg": 53.1582,
      "raan_deg": 80.0995,
      "arg_perigee_deg": 87.3216,
      "mean_anomaly_deg": 272.7949,
      "mean_motion_rev_day": 15.30214267
    },
    {
      "epoch": "2026-04-03T05:56:53.331936Z",
      "apogee_km": 476.04922113964403,
      "perigee_km": 474.33451825644534,
      "latitude_deg": -7.795941362641197e-05,
      "longitude_deg": 156.5615429208309,
      "height_km": 476.06077190477725,
      "semi_major_axis_km": 6853.328869698044,
      "eccentricity": 0.0001251,
      "inclination_deg": 53.1585,
      "raan_deg": 77.3687,
      "arg_perigee_deg": 88.058,
      "mean_anomaly_deg": 272.0563,
      "mean_motion_rev_day": 15.3020777
    },
    {
      "epoch": "2026-04-04T08:35:48.484320Z",
      "apogee_km": 476.0813122763966,
      "perigee_km": 474.32411597369446,
      "latitude_deg": -4.80846857314812e-05,
      "longitude_deg": 110.58114187530997,
      "height_km": 476.11551849193296,
      "semi_major_axis_km": 6853.339714125045,
      "eccentricity": 0.0001282,
      "inclination_deg": 53.1589,
      "raan_deg": 72.2125,
      "arg_perigee_deg": 90.9688,
      "mean_anomaly_deg": 269.1459,
      "mean_motion_rev_day": 15.30204138
    },
    {
      "epoch": "2026-04-05T08:06:36.442656Z",
      "apogee_km": 476.09986776251844,
      "perigee_km": 474.3693914260457,
      "latitude_deg": -1.0638322580059106e-05,
      "longitude_deg": 112.36498434882776,
      "height_km": 476.24733922229547,
      "semi_major_axis_km": 6853.371629594281,
      "eccentricity": 0.00012625,
      "inclination_deg": 53.1592,
      "raan_deg": 67.6618,
      "arg_perigee_deg": 97.6177,
      "mean_anomaly_deg": 262.4967,
      "mean_motion_rev_day": 15.30193449
    }
  ]
}